NORAD_CAT_ID,OBJECT_NAME,OBJECT_TYPE,EPOCH,MEAN_MOTION,ECCENTRICITY,INCLINATION,RA_OF_ASC_NODE,ARG_OF_PERICENTER,MEAN_ANOMALY,BSTAR,MEAN_MOTION_DOT,MEAN_MOTION_DDOT,TLE_LINE0,TLE_LINE1,TLE_LINE2,SEMIMAJOR_AXIS,PERIOD,APOGEE,PERIGEE,DECAYED
52267.0,STARLINK-3748,PAYLOAD,2024-05-16 13:28:28,15.08863939,0.0001397,53.2157,201.5341,69.5958,290.5184,0.0022346,0.00035478,0.0,0 STARLINK-3748,1 52267U 22041G   24137.56144419  .00035478  00000-0  22346-2 0  9998,2 52267  53.2157 201.5341 0001397  69.5958 290.5184 15.08863939114406,6917.807,95.436,540.639,538.706,0.0
52267.0,STARLINK-3748,PAYLOAD,2024-05-16 21:25:24,15.088593,9.36e-05,53.2155,200.0459,73.2045,286.9049,0.0011605,0.00018239,0.0,0 STARLINK-3748,1 52267U 22041G   24137.89264023  .00018239  00000-0  11605-2 0  9990,2 52267  53.2155 200.0459 0000936  73.2045 286.9049 15.08859300114456,6917.821,95.436,540.334,539.039,0.0
52267.0,STARLINK-3748,PAYLOAD,2024-05-17 03:46:57,15.08810188,0.0001287,53.2154,198.8564,89.0247,271.0892,-0.0011169,-0.00018005,0.0,0 STARLINK-3748,1 52267U 22041G   24138.15761063 -.00018005  00000-0 -11169-2 0  9994,2 52267  53.2154 198.8564 0001287  89.0247 271.0892 15.08810188115717,6917.972,95.439,540.727,538.946,0.0
52267.0,STARLINK-3748,PAYLOAD,2024-05-17 13:19:17,15.08811583,0.0001384,53.2154,197.0718,90.373,269.7421,0.0011448,0.00017964,0.0,0 STARLINK-3748,1 52267U 22041G   24138.55506237  .00017964  00000-0  11448-2 0  9999,2 52267  53.2154 197.0718 0001384  90.3730 269.7421 15.08811583114552,6917.967,95.439,540.79,538.875,0.0
52267.0,STARLINK-3748,PAYLOAD,2024-05-17 21:16:13,15.0883187,0.0001387,53.2154,195.5849,90.9464,269.1687,0.0021316,0.00033792,0.0,0 STARLINK-3748,1 52267U 22041G   24138.88626707  .00033792  00000-0  21316-2 0  9992,2 52267  53.2154 195.5849 0001387  90.9464 269.1687 15.08831870115823,6917.905,95.438,540.73,538.811,0.0
52267.0,STARLINK-3748,PAYLOAD,2024-05-18 11:34:40,15.08885397,0.0001425,53.2156,192.9087,87.9232,272.1923,0.0024498,0.00038965,0.0,0 STARLINK-3748,1 52267U 22041G   24139.48241744  .00038965  00000-0  24498-2 0  9994,2 52267  53.2156 192.9087 0001425  87.9232 272.1923 15.08885397115912,6917.742,95.435,540.592,538.621,0.0
52267.0,STARLINK-3748,PAYLOAD,2024-05-18 13:10:03,15.08891289,0.0001429,53.2156,192.6112,87.8984,272.2172,0.0024619,0.00039166,0.0,0 STARLINK-3748,1 52267U 22041G   24139.54865509  .00039166  00000-0  24619-2 0  9991,2 52267  53.2156 192.6112 0001429  87.8984 272.2172 15.08891289114705,6917.724,95.434,540.577,538.6,0.0
52267.0,STARLINK-3748,PAYLOAD,2024-05-18 21:06:58,15.0888611,0.0001112,53.2156,191.1243,59.2127,300.8974,0.001008,0.00015811,0.0,0 STARLINK-3748,1 52267U 22041G   24139.87984597  .00015811  00000-0  10080-2 0  9994,2 52267  53.2156 191.1243 0001112  59.2127 300.8974 15.08886110115970,6917.739,95.435,540.374,538.835,0.0
52267.0,STARLINK-3748,PAYLOAD,2024-05-19 03:28:31,15.08831994,0.0001449,53.2157,189.9345,71.7823,288.3327,-0.0012312,-0.00019825,0.0,0 STARLINK-3748,1 52267U 22041G   24140.14481270 -.00019825  00000-0 -12312-2 0  9997,2 52267  53.2157 189.9345 0001449  71.7823 288.3327 15.08831994116012,6917.905,95.438,540.772,538.767,0.0
52267.0,STARLINK-3748,PAYLOAD,2024-05-19 13:00:51,15.08825108,0.0001583,53.2159,188.1509,62.8783,297.2371,0.0014423,0.00022731,0.0,0 STARLINK-3748,1 52267U 22041G   24140.54226206  .00022731  00000-0  14423-2 0  9990,2 52267  53.2159 188.1509 0001583  62.8783 297.2371 15.08825108114850,6917.926,95.438,540.886,538.696,0.0
52267.0,STARLINK-3748,PAYLOAD,2024-05-20 08:05:29,15.08856365,0.0001648,53.216,184.5827,64.2248,295.8915,0.0014917,0.00023543,0.0,0 STARLINK-3748,1 52267U 22041G   24141.33714392  .00023543  00000-0  14917-2 0  9996,2 52267  53.2160 184.5827 0001648  64.2248 295.8915 15.08856365114979,6917.83,95.437,540.835,538.555,0.0
52267.0,STARLINK-3748,PAYLOAD,2024-05-21 03:10:06,15.08857034,0.0002026,53.2167,181.0139,95.7906,264.3317,0.0010164,0.00015933,0.0,0 STARLINK-3748,1 52267U 22041G   24142.13202082  .00015933  00000-0  10164-2 0  9997,2 52267  53.2167 181.0139 0002026  95.7906 264.3317 15.08857034116316,6917.828,95.436,541.095,538.292,0.0
52267.0,STARLINK-3748,PAYLOAD,2024-05-21 09:31:39,15.08819174,0.0001495,53.216,179.825,63.7413,296.3732,0.0012172,0.00019126,0.0,0 STARLINK-3748,1 52267U 22041G   24142.39698610  .00019126  00000-0  12172-2 0  9990,2 52267  53.2160 179.8250 0001495  63.7413 296.3732 15.08819174116358,6917.944,95.439,540.843,538.775,0.0
52267.0,STARLINK-3748,PAYLOAD,2024-05-22 09:22:26,15.08847439,0.0001502,53.216,175.3637,72.0976,288.018,0.00089395,0.00013971,0.0,0 STARLINK-3748,1 52267U 22041G   24143.39058916  .00013971  00000-0  89395-3 0  9994,2 52267  53.2160 175.3637 0001502  72.0976 288.0180 15.08847439116501,6917.858,95.437,540.762,538.684,0.0
52267.0,STARLINK-3748,PAYLOAD,2024-05-23 10:48:36,15.08852795,0.000151,53.2155,170.6065,78.9767,281.1395,0.00038291,5.813e-05,0.0,0 STARLINK-3748,1 52267U 22041G   24144.45042364  .00005813  00000-0  38291-3 0  9997,2 52267  53.2155 170.6065 0001510  78.9767 281.1395 15.08852795116660,6917.841,95.437,540.751,538.662,0.0
52267.0,STARLINK-3748,PAYLOAD,2024-05-24 10:39:23,15.08848623,0.0001556,53.2154,166.144,77.3649,282.7517,0.00011692,1.574e-05,0.0,0 STARLINK-3748,1 52267U 22041G   24145.44402035  .00001574  00000-0  11692-3 0  9998,2 52267  53.2154 166.1440 0001556  77.3649 282.7517 15.08848623116813,6917.854,95.437,540.795,538.643,0.0
52267.0,STARLINK-3748,PAYLOAD,2024-05-24 18:36:18,15.08851,0.0001261,53.2159,164.6549,83.6227,276.4908,0.00013811,1.911e-05,0.0,0 STARLINK-3748,1 52267U 22041G   24145.77521709  .00001911  00000-0  13811-3 0  9994,2 52267  53.2159 164.6549 0001261  83.6227 276.4908 15.08851000115643,6917.847,95.437,540.584,538.839,0.0
52267.0,STARLINK-3748,PAYLOAD,2024-05-25 08:54:47,15.08841071,0.0001478,53.2156,161.9826,97.9742,262.1418,-3.9675e-05,-9.19e-06,0.0,0 STARLINK-3748,1 52267U 22041G   24146.37138239 -.00000919  00000-0 -39675-4 0  9999,2 52267  53.2156 161.9826 0001478  97.9742 262.1418 15.08841071116958,6917.877,95.437,540.765,538.72,0.0
52267.0,STARLINK-3748,PAYLOAD,2024-05-26 07:10:11,15.08846363,0.0001435,53.2156,157.8189,87.1959,272.9197,0.0001384,1.916e-05,0.0,0 STARLINK-3748,1 52267U 22041G   24147.29874021  .00001916  00000-0  13840-3 0  9998,2 52267  53.2156 157.8189 0001435  87.1959 272.9197 15.08846363115870,6917.861,95.437,540.719,538.733,0.0
52267.0,STARLINK-3748,PAYLOAD,2024-05-26 18:17:52,15.08848257,0.0001536,53.2156,155.7379,72.816,287.3,0.00016428,2.328e-05,0.0,0 STARLINK-3748,1 52267U 22041G   24147.76241862  .00002328  00000-0  16428-3 0  9994,2 52267  53.2156 155.7379 0001536  72.8160 287.3000 15.08848257117166,6917.855,95.437,540.783,538.658,0.0
52267.0,STARLINK-3748,PAYLOAD,2024-05-27 05:25:35,15.08836492,0.0001388,53.2165,153.6587,81.6448,278.4701,0.00011937,1.612e-05,0.0,0 STARLINK-3748,1 52267U 22041G   24148.22610475  .00001612  00000-0  11937-3 0  9991,2 52267  53.2165 153.6587 0001388  81.6448 278.4701 15.08836492117231,6917.891,95.438,540.716,538.796,0.0
52267.0,STARLINK-3748,PAYLOAD,2024-05-27 07:00:58,15.08835952,0.0001467,53.2162,153.3588,84.8062,275.3098,0.00022472,3.29e-05,0.0,0 STARLINK-3748,1 52267U 22041G   24148.29234600  .00003290  00000-0  22472-3 0  9990,2 52267  53.2162 153.3588 0001467  84.8062 275.3098 15.08835952116022,6917.893,95.438,540.773,538.743,0.0
52267.0,STARLINK-3748,PAYLOAD,2024-05-28 10:02:31,15.08837573,0.0001444,53.2165,148.3049,98.5107,261.6049,3.6649e-05,2.95e-06,0.0,0 STARLINK-3748,1 52267U 22041G   24149.41842584  .00000295  00000-0  36649-4 0  9995,2 52267  53.2165 148.3049 0001444  98.5107 261.6049 15.08837573117417,6917.888,95.438,540.752,538.754,0.0
52267.0,STARLINK-3748,PAYLOAD,2024-05-29 09:53:19,15.08837088,0.0001432,53.2169,143.8442,91.1452,268.9704,7.3302e-05,8.79e-06,0.0,0 STARLINK-3748,1 52267U 22041G   24150.41202674  .00000879  00000-0  73302-4 0  9992,2 52267  53.2169 143.8442 0001432  91.1452 268.9704 15.08837088116347,6917.889,95.438,540.745,538.764,0.0
52267.0,STARLINK-3748,PAYLOAD,2024-05-30 04:57:56,15.08837695,0.0001421,53.2167,140.2756,94.2546,265.8609,9.6493e-05,1.248e-05,0.0,0 STARLINK-3748,1 52267U 22041G   24151.20690879  .00001248  00000-0  96493-4 0  9995,2 52267  53.2167 140.2756 0001421  94.2546 265.8609 15.08837695117682,6917.887,95.438,540.735,538.769,0.0
52267.0,STARLINK-3748,PAYLOAD,2024-05-30 09:44:06,15.08838659,0.0001429,53.2168,139.3835,95.1827,264.9328,9.9436e-05,1.295e-05,0.0,0 STARLINK-3748,1 52267U 22041G   24151.40562847  .00001295  00000-0  99436-4 0  9992,2 52267  53.2168 139.3835 0001429  95.1827 264.9328 15.08838659116497,6917.884,95.438,540.738,538.761,0.0
52267.0,STARLINK-3748,PAYLOAD,2024-05-31 07:59:30,15.08843098,0.0001469,53.2171,135.2201,96.0165,264.0995,0.00010512,1.386e-05,0.0,0 STARLINK-3748,1 52267U 22041G   24152.33298699  .00001386  00000-0  10512-3 0  9994,2 52267  53.2171 135.2201 0001469  96.0165 264.0995 15.08843098117857,6917.871,95.437,540.752,538.72,0.0
52267.0,STARLINK-3748,PAYLOAD,2024-06-01 04:39:31,15.08838046,0.0001427,53.2169,131.355,90.9903,269.1252,6.6357e-05,7.68e-06,0.0,0 STARLINK-3748,1 52267U 22041G   24153.19411043  .00000768  00000-0  66357-4 0  9991,2 52267  53.2169 131.3550 0001427  90.9903 269.1252 15.08838046117988,6917.886,95.438,540.739,538.764,0.0
52267.0,STARLINK-3748,PAYLOAD,2024-06-01 06:14:54,15.08838369,0.0001418,53.217,131.0577,91.008,269.1074,6.4977e-05,7.46e-06,0.0,0 STARLINK-3748,1 52267U 22041G   24153.26035021  .00000746  00000-0  64977-4 0  9999,2 52267  53.2170 131.0577 0001418  91.0080 269.1074 15.08838369116770,6917.885,95.438,540.731,538.769,0.0
52267.0,STARLINK-3748,PAYLOAD,2024-06-01 15:47:12,15.08845569,0.0001378,53.2171,129.2725,86.7422,273.3727,8.0113e-05,9.87e-06,0.0,0 STARLINK-3748,1 52267U 22041G   24153.65778469  .00000987  00000-0  80113-4 0  9999,2 52267  53.2171 129.2725 0001378  86.7422 273.3727 15.08845569118056,6917.863,95.437,540.682,538.775,0.0
